#dP2021  4 15  0  0  0.00000000      96 __u+U ITR00 FIT  IAC
## 2153 345600.00000000   900.00000000 59319 0.0000000000000
+  126   C01C02C03C04C05C06C07C08C09C10C11C12C13C14C16C19C20
+        C21C22C23C24C25C26C27C28C29C30C32C33C34C35C36C37C38
+        C39C40C41C42C43C44C45C46C60E01E02E03E04E05E07E08E09
+        E11E12E13E14E15E18E19E21E24E25E26E27E30E31E33E36G01
+        G02G03G04G05G06G07G08G09G10G12G13G14G15G16G17G18G19
+        G20G21G22G23G24G25G26G27G28G29G30G31G32J01J02J03J07
+        R01R02R03R04R05R06R07R08R09R10R11R12R13R14R15R16R17
+        R18R19R20R21R22R23R24  0  0  0  0  0  0  0  0  0  0
++        13 13 17 13 13  9  9  9  9  9  9  9  9  9  9  8  8
++         8  9  8  8  8  8  8  8  8  8  8  9  8  8  9  9 10
++        10 10  9  9  9  9  9  9 13  5  4  6  4  5  5  5  5
++         4  4  5  4  5  5  4  5  6  5  5  5  5  5  5  5  4
++         4  4  4  4  4  4  4  4  4  4  4  4  4  4  4  4  4
++         4  4  4  4  4  4  4  4  4  4  4  4  4  8  9  8 14
++         8  6  6  6  6 13  6  6  6 13  8  6  8  6  6  8  6
++         6  8  8  6  8 13  6  0  0  0  0  0  0  0  0  0  0
%c M  cc GPS ccc cccc cccc cccc cccc ccccc ccccc ccccc ccccc
%c cc cc ccc ccc cccc cccc cccc cccc ccccc ccccc ccccc ccccc
%f  0.0000000  0.000000000  0.00000000000  0.000000000000000
%f  0.0000000  0.000000000  0.00000000000  0.000000000000000
%i    0    0    0    0      0      0      0      0         0
%i    0    0    0    0      0      0      0      0         0
/* INFORMATION & ANALYSIS CENTER (IAC)            RAPID DATA
/* S/V CLOCKS ARE ALIGNED TO GNSS TIME                      
/* G:C1WC2W R:C1PC2P E:C1XC5X C:C2IC6I J:C1CC2S             
/* PCV:IGS14_2148 OL/AL:FES2004  NONE     YN ORB:CoN CLK:CoN
*  2021 04 15 20 30  0.00000000
PC01 -34370.808276  24428.088632   -116.576606   -557.195323
PC02   4439.204397  41950.870870    653.298024    756.414114
PC03 -14747.675564  39539.301122   -326.630264   -398.227927
PC04 -39597.789289  14479.720359   -535.618524    771.212266
PC05  21946.022731  36040.661082    603.797494     78.081438
PC06 -11652.447517  21986.647505  34504.815671    281.986912
PC07 -25170.691598  31657.633030 -12561.391119   -123.954793
PC08  -9561.219095  35780.671417 -19696.560740   -892.168197
PC09   4304.478494  28531.228587  31181.667542    593.252141
PC10 -11608.425560  32948.034164 -23710.024593    -56.068296
PC11   6524.313744 -14089.901105  23248.555885   -807.393100
PC12  21054.087815    178.256266  18340.651316    926.592380
PC13  -1103.351361  41464.531697  -6689.002875    222.940512
PC14  16886.446379 -18027.018744 -12897.082201    477.446031
PC16  -7508.969508  23262.459976  34486.015080   -785.508298
PC19  -7447.731401  18549.870540  19512.943567    799.953909
PC20 -22639.434667  15288.950592   5803.580073   -955.992581
PC21  25003.064916  -2610.596293  12113.153676   -944.106859
PC22  12488.600975  11184.997370  22312.981449   -965.265489
PC23  -9075.973902 -21494.319067  15309.992409   -888.618895
PC24  13808.327777 -17208.117392 -17111.903912   -815.126932
PC25   2240.914393 -27818.995521   -674.917529   -931.962799
PC26  16131.736064   1579.768682 -22724.737890    920.541425
PC27 -24321.831626  -8045.593222 -11059.708558    515.991950
PC28 -19133.841810 -19241.953732   6515.064608    -85.849455
PC29   3448.135602  18989.878645 -20165.858678    379.298793
PC30 -15356.518908   7997.971308 -21885.012921    460.544267
PC32 -25004.857263   2847.188165 -12050.580464   -941.555283
PC33   7403.646113 -18592.935639 -19427.361919   -941.772637
PC34  14846.174830  -8509.067360  22039.467545   -695.119308
PC35  19589.799683  18704.958175  -6807.219290   -325.469748
PC36  -3134.536461  27711.104769   1035.840047   -731.392932
PC37 -15974.157023  -3026.278474  22694.772364   -897.224219
PC38  -7859.509500  38300.152790 -15630.102312    142.513219
PC39  -3095.392990  24650.481504  34108.454348     30.349359
PC40 -18120.788116  28938.975304 -24800.153665    151.487134
PC41 -12282.163872 -11315.877646 -22302.428240   -944.742456
PC42  23014.983454 -14927.276089  -5022.905448   -924.177291
PC43  -2763.801045 -18912.601671  20315.340105   -687.064135
PC44  24667.089659   7386.636296  10797.137493    139.431835
PC45   9097.524795  21381.334213 -15439.275479    414.744234
PC46 -13332.428458  18052.744568  16566.814050    314.689388
PC60   7306.666447  41500.189058  -1799.594105 999999.999999
PE01 -12308.134144  26396.406962  -5269.428061  -1087.698699
PE02  12242.619954 -26418.620121   5368.362533    212.425910
PE03   9040.371811 -16101.438452 -23126.910364   -420.495613
PE04  13259.579509  15582.449284  21400.221626   -750.862850
PE05  26398.326286  -7171.311131 -11298.193136   -288.562865
PE07 -28176.457643  -5825.611570  -6964.386416   -526.020517
PE08 -13691.783441 -15285.497799 -21329.934168   6017.097634
PE09  28244.533486   5557.042525   6869.769018   5699.751422
PE11  20071.590265  13905.470875  16742.686667   6091.281643
PE12  13258.880423  26432.396282  -1590.946211   5258.021404
PE13 -20048.572691 -14231.698576 -16468.450661    415.069437
PE14  -1225.854120  20522.621149 -24292.948356  -1398.127505
PE15 -13355.301590 -26362.189600   1579.650647    819.281642
PE18 -10836.571636 -16603.822809  15191.131195  -1529.596967
PE19 -11530.953216  15390.834420  22511.269584    253.112183
PE21 -20617.720635  17056.476938  12646.351643   -659.522883
PE24  17015.058476   3437.284578 -23995.210056   -848.982738
PE25  20652.336325 -16901.775511 -12811.485686   -531.100804
PE26 -14682.543080   7073.674174 -24704.739554   1920.674191
PE27 -17329.045243  -2564.508446  23857.056502    -11.937226
PE30  -3065.937861 -21165.545570  20457.818265   3022.261371
PE31   3881.931442  20529.845552 -20963.147240   -480.196938
PE33  -1166.924990  22962.993925 -18644.146644   -467.581667
PE36  14933.308977  -6244.051551  24787.778728   -194.165084
PG01  14974.392674   -210.378020  21717.294792    715.323255
PG02 -13696.292784 -21239.312158  -7434.625561   -595.960803
PG03  21101.056308  -9726.394413  12683.771554   -137.758616
PG04  25012.208233    236.101206  -9010.688492   -191.975135
PG05 -14932.800517  -5846.086414 -21351.968489    -39.182770
PG06  -5677.268637 -25750.320300   2967.120697      7.515193
PG07   9700.740368 -15119.728176 -19051.043739    123.057951
PG08  26164.911217   5447.458819    318.404380    -17.626172
PG09  18444.922161  -8493.325381 -17194.040153   -339.139742
PG10  -8537.629423  21740.821180  12505.652421   -102.675480
PG12 -21095.859865   5917.968371  14654.984890    -28.251359
PG13 -21897.630022 -13474.904798  -7060.154400    120.346452
PG14  10316.424434 -21500.005419  11661.480741     95.786459
PG15 -26582.799531  -2976.652096    149.204498   -155.946170
PG16  11539.754778   9818.776166 -22081.721710   -310.226345
PG17   1791.487183 -14982.437462  22284.391990    426.937219
PG18  -7184.691183  18755.523895 -17356.104559    351.617505
PG19  -7778.579229 -16329.358436  19201.513028    -12.501105
PG20 -19457.312513  14513.555019 -10406.436423    523.139509
PG21  17518.671253   7473.005450  19418.049730    111.235077
PG22  18641.138095  -1168.334210  19010.329478   -637.112092
PG23 -16531.845152  20656.897245   2018.573232    113.291836
PG24 -17234.603748  -5028.426566  19446.088771      8.569805
PG25 -19709.564260  17085.786803   3886.225749    119.220155
PG26   4014.801622  17307.645433 -19721.756446     72.616815
PG27  21096.526056  12484.507743 -10851.633188   -113.324941
PG28   8262.963534 -20852.550901  14932.402998    586.246690
PG29 -18498.608098   6686.217735 -17915.348918   -330.603073
PG30    904.782466 -24454.403194  -9978.888667   -413.296605
PG31   7107.188674  25327.740460   -208.055652   -111.785329
PG32   1232.198209  15776.752726  21459.415884     22.087299
PJ01 -31296.918755  25769.087148  16599.583799   -366.102244
PJ02 -31573.530472  26396.720178  13877.361063      5.582697
PJ03 -25358.021184  16781.535247 -24622.204300     -3.461000
PJ07 -25381.769356  33673.748050     46.491603     -0.006967
PR01 -14916.601725  -5721.966383 -19883.707088     77.936342
PR02 -24821.580665   5171.657601  -2454.865672    474.935803
PR03 -17602.179585  11672.854659  14313.248889     34.270830
PR04   -689.233878  11286.497361  22896.351446     82.550445
PR05  16679.678030   4764.018417  18726.316246     70.042688
PR06  24677.657111  -6313.604248   1545.545684    196.293885
PR07  17226.520098 -11736.019130 -14690.535847    -42.542360
PR08    627.218319 -11362.398866 -22770.196350    -58.563810
PR09  12515.514313  -6922.680191 -21090.243064    -11.893729
PR10  10257.207074 -21303.883608  -9675.461714    -67.994255
PR11   2060.100894 -24016.890485   8335.088379      0.674990
PR12  -7251.400458 -12099.536105  21279.677943    221.134589
PR13 -12213.041929   6429.521518  21431.311303    -53.496664
PR14 -10137.178866  21749.139309   8680.891943     63.179634
PR15  -2154.917261  23875.419515  -8700.471771    104.349968
PR16   8152.997171  10864.603765 -21588.589351    -13.827260
PR17  -5636.736589   9225.644879 -23094.502872    416.372427
PR18   8489.335024  18585.566460 -15297.330190     73.300459
PR19  17264.677750  18779.899941   -179.631420   -139.919817
PR20  16945.809972   6672.885537  17890.562674    -47.363793
PR21   4595.307636 -10090.562686  22972.651344   -201.996113
PR22  -9138.080487 -18829.511980  14490.298278   -107.962782
PR23 -19121.160724 -15374.514585  -6968.854323    378.794437
PR24 -17006.940491  -5553.436214 -18169.572851     38.984265
EOF
